COSMOS 1933             
1 18958U 88020A   26031.80556759  .00003775  00000+0  18605-3 0  9990
2 18958  82.5139 287.3999 0003985 354.6241   5.4949 15.17655138 44638
SL-3 R/B                
1 19046U 88032B   26031.79301340  .00005831  00000+0  27618-3 0  9993
2 19046  97.5130  15.2045 0026494   7.1297 353.0309 15.19409712 46502
SL-16 R/B               
1 19120U 88039B   26031.77596211  .00000179  00000+0  10745-3 0  9997
2 19120  71.0151 146.6029 0020548  31.4055 328.8292 14.19610320953148
COSMOS 1953             
1 19210U 88050A   26031.82535707  .00008658  00000+0  31778-3 0  9998
2 19210  82.5074 195.2952 0010368 253.0047 107.0056 15.27747905 32150
SL-8 R/B                
1 19257U 88053B   26031.82924572  .00000269  00000+0  95608-4 0  9997
2 19257  74.0473 180.4021 0020028   7.0118 163.8853 14.38892528971298
COSMOS 1975             
1 19573U 88093A   26031.78384405  .00009096  00000+0  33754-3 0  9992
2 19573  82.5222 154.7010 0010538 303.5251  56.4981 15.27392867 13773
SL-14 R/B               
1 19574U 88093B   26031.62864718  .00000534  00000+0  58614-4 0  9997
2 19574  82.5286  76.8446 0021306 156.8875 320.5889 14.85614783995539
SL-16 R/B               
1 19650U 88102B   26031.82152007 -.00000203  00000+0 -78506-4 0  9993
2 19650  70.9974 229.0682 0012097  62.8705 297.3650 14.16146502921672
INTERCOSMOS 24          
1 20261U 89080A   26031.78924438  .00000520  00000+0  14785-3 0  9997
2 20261  82.6075 128.4180 1188485  18.4860 345.5829 12.59507867662153
SL-14 R/B               
1 20262U 89080C   26031.82814659  .00000354  00000+0  10748-3 0  9996
2 20262  82.5933 196.8519 1229423 269.0579  76.9798 12.50451104655548
DELTA 1 R/B             
1 20323U 89089B   26031.58019295  .00000494  00000+0  13116-3 0  9996
2 20323  97.0731 244.9143 0067761 239.4139 120.0363 14.50629332890359
ARIANE 40 R/B           
1 20443U 90005H   26031.77447279  .00000339  00000+0  12149-3 0  9990
2 20443  98.3162  93.5210 0009256 320.7563  39.2954 14.39844261887492
