CCSDS_OMM_VERS = 2.0
CREATION_DATE  = 
ORIGINATOR     = 

OBJECT_NAME    = COSMOS 1933
OBJECT_ID      = 1988-020A
CENTER_NAME    = EARTH
REF_FRAME      = TEME
TIME_SYSTEM    = UTC
MEAN_ELEMENT_THEORY = SGP/SGP4

EPOCH          = 2026-01-31T19:20:01.039776
MEAN_MOTION    = 15.17655138
ECCENTRICITY   = .0003985
INCLINATION    = 82.5139
RA_OF_ASC_NODE = 287.3999
ARG_OF_PERICENTER = 354.6241
MEAN_ANOMALY   = 5.4949

EPHEMERIS_TYPE = 0
CLASSIFICATION_TYPE = U
NORAD_CAT_ID   = 18958
ELEMENT_SET_NO = 999
REV_AT_EPOCH   = 4463
BSTAR          = .18605E-3
MEAN_MOTION_DOT = .3775E-4
MEAN_MOTION_DDOT = 0

CCSDS_OMM_VERS = 2.0
CREATION_DATE  = 
ORIGINATOR     = 

OBJECT_NAME    = SL-3 R/B
OBJECT_ID      = 1988-032B
CENTER_NAME    = EARTH
REF_FRAME      = TEME
TIME_SYSTEM    = UTC
MEAN_ELEMENT_THEORY = SGP/SGP4

EPOCH          = 2026-01-31T19:01:56.357760
MEAN_MOTION    = 15.19409712
ECCENTRICITY   = .0026494
INCLINATION    = 97.5130
RA_OF_ASC_NODE = 15.2045
ARG_OF_PERICENTER = 7.1297
MEAN_ANOMALY   = 353.0309

EPHEMERIS_TYPE = 0
CLASSIFICATION_TYPE = U
NORAD_CAT_ID   = 19046
ELEMENT_SET_NO = 999
REV_AT_EPOCH   = 4650
BSTAR          = .27618E-3
MEAN_MOTION_DOT = .5831E-4
MEAN_MOTION_DDOT = 0

CCSDS_OMM_VERS = 2.0
CREATION_DATE  = 
ORIGINATOR     = 

OBJECT_NAME    = SL-16 R/B
OBJECT_ID      = 1988-039B
CENTER_NAME    = EARTH
REF_FRAME      = TEME
TIME_SYSTEM    = UTC
MEAN_ELEMENT_THEORY = SGP/SGP4

EPOCH          = 2026-01-31T18:37:23.126304
MEAN_MOTION    = 14.19610320
ECCENTRICITY   = .0020548
INCLINATION    = 71.0151
RA_OF_ASC_NODE = 146.6029
ARG_OF_PERICENTER = 31.4055
MEAN_ANOMALY   = 328.8292

EPHEMERIS_TYPE = 0
CLASSIFICATION_TYPE = U
NORAD_CAT_ID   = 19120
ELEMENT_SET_NO = 999
REV_AT_EPOCH   = 95314
BSTAR          = .10745E-3
MEAN_MOTION_DOT = .179E-5
MEAN_MOTION_DDOT = 0

CCSDS_OMM_VERS = 2.0
CREATION_DATE  = 
ORIGINATOR     = 

OBJECT_NAME    = COSMOS 1953
OBJECT_ID      = 1988-050A
CENTER_NAME    = EARTH
REF_FRAME      = TEME
TIME_SYSTEM    = UTC
MEAN_ELEMENT_THEORY = SGP/SGP4

EPOCH          = 2026-01-31T19:48:30.850848
MEAN_MOTION    = 15.27747905
ECCENTRICITY   = .0010368
INCLINATION    = 82.5074
RA_OF_ASC_NODE = 195.2952
ARG_OF_PERICENTER = 253.0047
MEAN_ANOMALY   = 107.0056

EPHEMERIS_TYPE = 0
CLASSIFICATION_TYPE = U
NORAD_CAT_ID   = 19210
ELEMENT_SET_NO = 999
REV_AT_EPOCH   = 3215
BSTAR          = .31778E-3
MEAN_MOTION_DOT = .8658E-4
MEAN_MOTION_DDOT = 0

CCSDS_OMM_VERS = 2.0
CREATION_DATE  = 
ORIGINATOR     = 

OBJECT_NAME    = SL-8 R/B
OBJECT_ID      = 1988-053B
CENTER_NAME    = EARTH
REF_FRAME      = TEME
TIME_SYSTEM    = UTC
MEAN_ELEMENT_THEORY = SGP/SGP4

EPOCH          = 2026-01-31T19:54:06.830208
MEAN_MOTION    = 14.38892528
ECCENTRICITY   = .0020028
INCLINATION    = 74.0473
RA_OF_ASC_NODE = 180.4021
ARG_OF_PERICENTER = 7.0118
MEAN_ANOMALY   = 163.8853

EPHEMERIS_TYPE = 0
CLASSIFICATION_TYPE = U
NORAD_CAT_ID   = 19257
ELEMENT_SET_NO = 999
REV_AT_EPOCH   = 97129
BSTAR          = .95608E-4
MEAN_MOTION_DOT = .269E-5
MEAN_MOTION_DDOT = 0

CCSDS_OMM_VERS = 2.0
CREATION_DATE  = 
ORIGINATOR     = 

OBJECT_NAME    = COSMOS 1975
OBJECT_ID      = 1988-093A
CENTER_NAME    = EARTH
REF_FRAME      = TEME
TIME_SYSTEM    = UTC
MEAN_ELEMENT_THEORY = SGP/SGP4

EPOCH          = 2026-01-31T18:48:44.125920
MEAN_MOTION    = 15.27392867
ECCENTRICITY   = .0010538
INCLINATION    = 82.5222
RA_OF_ASC_NODE = 154.7010
ARG_OF_PERICENTER = 303.5251
MEAN_ANOMALY   = 56.4981

EPHEMERIS_TYPE = 0
CLASSIFICATION_TYPE = U
NORAD_CAT_ID   = 19573
ELEMENT_SET_NO = 999
REV_AT_EPOCH   = 1377
BSTAR          = .33754E-3
MEAN_MOTION_DOT = .9096E-4
MEAN_MOTION_DDOT = 0

CCSDS_OMM_VERS = 2.0
CREATION_DATE  = 
ORIGINATOR     = 

OBJECT_NAME    = SL-14 R/B
OBJECT_ID      = 1988-093B
CENTER_NAME    = EARTH
REF_FRAME      = TEME
TIME_SYSTEM    = UTC
MEAN_ELEMENT_THEORY = SGP/SGP4

EPOCH          = 2026-01-31T15:05:15.116352
MEAN_MOTION    = 14.85614783
ECCENTRICITY   = .0021306
INCLINATION    = 82.5286
RA_OF_ASC_NODE = 76.8446
ARG_OF_PERICENTER = 156.8875
MEAN_ANOMALY   = 320.5889

EPHEMERIS_TYPE = 0
CLASSIFICATION_TYPE = U
NORAD_CAT_ID   = 19574
ELEMENT_SET_NO = 999
REV_AT_EPOCH   = 99553
BSTAR          = .58614E-4
MEAN_MOTION_DOT = .534E-5
MEAN_MOTION_DDOT = 0

CCSDS_OMM_VERS = 2.0
CREATION_DATE  = 
ORIGINATOR     = 

OBJECT_NAME    = SL-16 R/B
OBJECT_ID      = 1988-102B
CENTER_NAME    = EARTH
REF_FRAME      = TEME
TIME_SYSTEM    = UTC
MEAN_ELEMENT_THEORY = SGP/SGP4

EPOCH          = 2026-01-31T19:42:59.334048
MEAN_MOTION    = 14.16146502
ECCENTRICITY   = .0012097
INCLINATION    = 70.9974
RA_OF_ASC_NODE = 229.0682
ARG_OF_PERICENTER = 62.8705
MEAN_ANOMALY   = 297.3650

EPHEMERIS_TYPE = 0
CLASSIFICATION_TYPE = U
NORAD_CAT_ID   = 19650
ELEMENT_SET_NO = 999
REV_AT_EPOCH   = 92167
BSTAR          = -.78506E-4
MEAN_MOTION_DOT = -.203E-5
MEAN_MOTION_DDOT = 0

CCSDS_OMM_VERS = 2.0
CREATION_DATE  = 
ORIGINATOR     = 

OBJECT_NAME    = INTERCOSMOS 24
OBJECT_ID      = 1989-080A
CENTER_NAME    = EARTH
REF_FRAME      = TEME
TIME_SYSTEM    = UTC
MEAN_ELEMENT_THEORY = SGP/SGP4

EPOCH          = 2026-01-31T18:56:30.714432
MEAN_MOTION    = 12.59507867
ECCENTRICITY   = .1188485
INCLINATION    = 82.6075
RA_OF_ASC_NODE = 128.4180
ARG_OF_PERICENTER = 18.4860
MEAN_ANOMALY   = 345.5829

EPHEMERIS_TYPE = 0
CLASSIFICATION_TYPE = U
NORAD_CAT_ID   = 20261
ELEMENT_SET_NO = 999
REV_AT_EPOCH   = 66215
BSTAR          = .14785E-3
MEAN_MOTION_DOT = .52E-5
MEAN_MOTION_DDOT = 0

CCSDS_OMM_VERS = 2.0
CREATION_DATE  = 
ORIGINATOR     = 

OBJECT_NAME    = SL-14 R/B
OBJECT_ID      = 1989-080C
CENTER_NAME    = EARTH
REF_FRAME      = TEME
TIME_SYSTEM    = UTC
MEAN_ELEMENT_THEORY = SGP/SGP4

EPOCH          = 2026-01-31T19:52:31.865376
MEAN_MOTION    = 12.50451104
ECCENTRICITY   = .1229423
INCLINATION    = 82.5933
RA_OF_ASC_NODE = 196.8519
ARG_OF_PERICENTER = 269.0579
MEAN_ANOMALY   = 76.9798

EPHEMERIS_TYPE = 0
CLASSIFICATION_TYPE = U
NORAD_CAT_ID   = 20262
ELEMENT_SET_NO = 999
REV_AT_EPOCH   = 65554
BSTAR          = .10748E-3
MEAN_MOTION_DOT = .354E-5
MEAN_MOTION_DDOT = 0

CCSDS_OMM_VERS = 2.0
CREATION_DATE  = 
ORIGINATOR     = 

OBJECT_NAME    = DELTA 1 R/B
OBJECT_ID      = 1989-089B
CENTER_NAME    = EARTH
REF_FRAME      = TEME
TIME_SYSTEM    = UTC
MEAN_ELEMENT_THEORY = SGP/SGP4

EPOCH          = 2026-01-31T13:55:28.670880
MEAN_MOTION    = 14.50629332
ECCENTRICITY   = .0067761
INCLINATION    = 97.0731
RA_OF_ASC_NODE = 244.9143
ARG_OF_PERICENTER = 239.4139
MEAN_ANOMALY   = 120.0363

EPHEMERIS_TYPE = 0
CLASSIFICATION_TYPE = U
NORAD_CAT_ID   = 20323
ELEMENT_SET_NO = 999
REV_AT_EPOCH   = 89035
BSTAR          = .13116E-3
MEAN_MOTION_DOT = .494E-5
MEAN_MOTION_DDOT = 0

CCSDS_OMM_VERS = 2.0
CREATION_DATE  = 
ORIGINATOR     = 

OBJECT_NAME    = ARIANE 40 R/B
OBJECT_ID      = 1990-005H
CENTER_NAME    = EARTH
REF_FRAME      = TEME
TIME_SYSTEM    = UTC
MEAN_ELEMENT_THEORY = SGP/SGP4

EPOCH          = 2026-01-31T18:35:14.449056
MEAN_MOTION    = 14.39844261
ECCENTRICITY   = .0009256
INCLINATION    = 98.3162
RA_OF_ASC_NODE = 93.5210
ARG_OF_PERICENTER = 320.7563
MEAN_ANOMALY   = 39.2954

EPHEMERIS_TYPE = 0
CLASSIFICATION_TYPE = U
NORAD_CAT_ID   = 20443
ELEMENT_SET_NO = 999
REV_AT_EPOCH   = 88749
BSTAR          = .12149E-3
MEAN_MOTION_DOT = .339E-5
MEAN_MOTION_DDOT = 0

